H1 CPF  1  DGF 2022 06 25 11  6761 larets     NONE      
H2   304206 5557    27944 2022 06 25 00 00 00 2022 07 02 00 00 00    30 1 1  0 0 0
H5  0.0650
H9
10 0 59756  39600.000000  0      -3143137.183      -4323267.292      -4618598.121
10 0 59756  39630.000000  0      -3270676.863      -4405979.495      -4448976.922
10 0 59756  39660.000000  0      -3395259.455      -4483683.865      -4274822.675
10 0 59756  39690.000000  0      -3516736.404      -4556314.421      -4096312.199
10 0 59756  39720.000000  0      -3634961.994      -4623810.940      -3913626.816
10 0 59756  39750.000000  0      -3749793.520      -4686119.021      -3726952.160
10 0 59756  39780.000000  0      -3861091.464      -4743190.125      -3536478.001
10 0 59756  39810.000000  0      -3968719.672      -4794981.621      -3342398.045
10 0 59756  39840.000000  0      -4072545.515      -4841456.812      -3144909.739
10 0 59756  39870.000000  0      -4172440.062      -4882584.968      -2944214.075
10 0 59756  39900.000000  0      -4268278.234      -4918341.342      -2740515.379
10 0 59756  39930.000000  0      -4359938.969      -4948707.185      -2534021.107
10 0 59756  39960.000000  0      -4447305.374      -4973669.750      -2324941.631
10 0 59756  39990.000000  0      -4530264.874      -4993222.294      -2113490.018
10 0 59756  40020.000000  0      -4608709.357      -5007364.069      -1899881.817
10 0 59756  40050.000000  0      -4682535.318      -5016100.302      -1684334.828
10 0 59756  40080.000000  0      -4751643.989      -5019442.181      -1467068.884
10 0 59756  40110.000000  0      -4815941.476      -5017406.819      -1248305.617
10 0 59756  40140.000000  0      -4875338.877      -5010017.220      -1028268.228
10 0 59756  40170.000000  0      -4929752.409      -4997302.239       -807181.259
10 0 59756  40200.000000  0      -4979103.517      -4979296.530       -585270.351
10 0 59756  40230.000000  0      -5023318.984      -4956040.491       -362762.014
10 0 59756  40260.000000  0      -5062331.034      -4927580.198       -139883.383
10 0 59756  40290.000000  0      -5096077.425      -4893967.339         83138.016
10 0 59756  40320.000000  0      -5124501.543      -4855259.132        306074.508
10 0 59756  40350.000000  0      -5147552.480      -4811518.244        528698.507
10 0 59756  40380.000000  0      -5165185.111      -4762812.700        750782.759
10 0 59756  40410.000000  0      -5177360.162      -4709215.787        972100.579
10 0 59756  40440.000000  0      -5184044.271      -4650805.948       1192426.087
10 0 59756  40470.000000  0      -5185210.045      -4587666.675       1411534.449
10 0 59756  40500.000000  0      -5180836.103      -4519886.398       1629202.107
10 0 59756  40530.000000  0      -5170907.119      -4447558.358       1845207.013
10 0 59756  40560.000000  0      -5155413.860      -4370780.490       2059328.864
10 0 59756  40590.000000  0      -5134353.205      -4289655.287       2271349.328
10 0 59756  40620.000000  0      -5107728.168      -4204289.664       2481052.272
10 0 59756  40650.000000  0      -5075547.908      -4114794.824       2688223.985
10 0 59756  40680.000000  0      -5037827.736      -4021286.107       2892653.397
10 0 59756  40710.000000  0      -4994589.112      -3923882.846       3094132.296
10 0 59756  40740.000000  0      -4945859.636      -3822708.213       3292455.545
10 0 59756  40770.000000  0      -4891673.032      -3717889.065       3487421.292
10 0 59756  40800.000000  0      -4832069.123      -3609555.781       3678831.178
10 0 59756  40830.000000  0      -4767093.801      -3497842.096       3866490.539
10 0 59756  40860.000000  0      -4696798.986      -3382884.937       4050208.603
10 0 59756  40890.000000  0      -4621242.581      -3264824.248       4229798.681
10 0 59756  40920.000000  0      -4540488.417      -3143802.820       4405078.356
10 0 59756  40950.000000  0      -4454606.199      -3019966.118       4575869.660
10 0 59756  40980.000000  0      -4363671.439      -2893462.102       4741999.252
10 0 59756  41010.000000  0      -4267765.386      -2764441.051       4903298.588
10 0 59756  41040.000000  0      -4166974.951      -2633055.383       5059604.091
10 0 59756  41070.000000  0      -4061392.622      -2499459.474       5210757.307
10 0 59756  41100.000000  0      -3951116.374      -2363809.480       5356605.064
10 0 59756  41130.000000  0      -3836249.579      -2226263.147       5496999.619
10 0 59756  41160.000000  0      -3716900.900      -2086979.638       5631798.805
10 0 59756  41190.000000  0      -3593184.189      -1946119.340       5760866.174
10 0 59756  41220.000000  0      -3465218.375      -1803843.684       5884071.125
10 0 59756  41250.000000  0      -3333127.336      -1660314.953       6001289.036
10 0 59756  41280.000000  0      -3197039.785      -1515696.101       6112401.383
10 0 59756  41310.000000  0      -3057089.134      -1370150.568       6217295.848
10 0 59756  41340.000000  0      -2913413.363      -1223842.091       6315866.434
10 0 59756  41370.000000  0      -2766154.880      -1076934.520       6408013.563
10 0 59756  41400.000000  0      -2615460.375       -929591.636       6493644.168
10 0 59756  41430.000000  0      -2461480.668       -781976.967       6572671.780
10 0 59756  41460.000000  0      -2304370.559       -634253.608       6645016.607
10 0 59756  41490.000000  0      -2144288.671       -486584.049       6710605.604
10 0 59756  41520.000000  0      -1981397.286       -339129.992       6769372.544
10 0 59756  41550.000000  0      -1815862.187       -192052.188       6821258.073
10 0 59756  41580.000000  0      -1647852.486        -45510.258       6866209.775
10 0 59756  41610.000000  0      -1477540.459        100337.476       6904182.214
10 0 59756  41640.000000  0      -1305101.366        245334.162       6935136.983
10 0 59756  41670.000000  0      -1130713.272        389324.583       6959042.739
10 0 59756  41700.000000  0       -954556.870        532155.319       6975875.230
10 0 59756  41730.000000  0       -776815.288        673674.916       6985617.323
10 0 59756  41760.000000  0       -597673.908        813734.036       6988259.014
10 0 59756  41790.000000  0       -417320.170        952185.620       6983797.445
10 0 59756  41820.000000  0       -235943.383       1088885.037       6972236.904
10 0 59756  41850.000000  0        -53734.528       1223690.235       6953588.822
10 0 59756  41880.000000  0        129113.947       1356461.888       6927871.769
10 0 59756  41910.000000  0        312408.319       1487063.543       6895111.431
10 0 59756  41940.000000  0        495953.804       1615361.755       6855340.587
10 0 59756  41970.000000  0        679554.752       1741226.226       6808599.081
10 0 59756  42000.000000  0        863014.857       1864529.932       6754933.781
10 0 59756  42030.000000  0       1046137.362       1985149.254       6694398.541
10 0 59756  42060.000000  0       1228725.273       2102964.098       6627054.150
10 0 59756  42090.000000  0       1410581.561       2217858.021       6552968.279
10 0 59756  42120.000000  0       1591509.379       2329718.339       6472215.416
10 0 59756  42150.000000  0       1771312.269       2438436.245       6384876.802
10 0 59756  42180.000000  0       1949794.376       2543906.913       6291040.356
10 0 59756  42210.000000  0       2126760.662       2646029.605       6190800.597
10 0 59756  42240.000000  0       2302017.123       2744707.767       6084258.551
10 0 59756  42270.000000  0       2475370.995       2839849.123       5971521.665
10 0 59756  42300.000000  0       2646630.976       2931365.767       5852703.697
10 0 59756  42330.000000  0       2815607.439       3019174.246       5727924.616
10 0 59756  42360.000000  0       2982112.639       3103195.639       5597310.482
10 0 59756  42390.000000  0       3145960.932       3183355.631       5460993.326
10 0 59756  42420.000000  0       3306968.976       3259584.585       5319111.019
10 0 59756  42450.000000  0       3464955.943       3331817.597       5171807.138
10 0 59756  42480.000000  0       3619743.718       3399994.562       5019230.827
10 0 59756  42510.000000  0       3771157.101       3464060.218       4861536.656
10 0 59756  42540.000000  0       3919024.009       3523964.196       4698884.475
10 0 59756  42570.000000  0       4063175.680       3579661.062       4531439.261
10 0 59756  42600.000000  0       4203446.874       3631110.356       4359370.968
10 0 59756  42630.000000  0       4339676.076       3678276.629       4182854.349
10 0 59756  42660.000000  0       4471705.695       3721129.468       4002068.782
10 0 59756  42690.000000  0       4599382.247       3759643.512       3817198.074
10 0 59756  42720.000000  0       4722556.538       3793798.465       3628430.278
10 0 59756  42750.000000  0       4841083.838       3823579.097       3435957.506
10 0 59756  42780.000000  0       4954824.059       3848975.244       3239975.731
10 0 59756  42810.000000  0       5063641.922       3869981.806       3040684.598
10 0 59756  42840.000000  0       5167407.129       3886598.731       2838287.214
10 0 59756  42870.000000  0       5265994.527       3898831.003       2632989.943
10 0 59756  42900.000000  0       5359284.260       3906688.615       2425002.191
10 0 59756  42930.000000  0       5447161.920       3910186.538       2214536.190
10 0 59756  42960.000000  0       5529518.696       3909344.693       2001806.776
10 0 59756  42990.000000  0       5606251.506       3904187.903       1787031.168
10 0 59756  43020.000000  0       5677263.138       3894745.846       1570428.740
10 0 59756  43050.000000  0       5742462.366       3881053.005       1352220.790
10 0 59756  43080.000000  0       5801764.080       3863148.607       1132630.309
10 0 59756  43110.000000  0       5855089.389       3841076.556        911881.744
10 0 59756  43140.000000  0       5902365.732       3814885.361        690200.763
10 0 59756  43170.000000  0       5943526.969       3784628.063        467814.014
99
